start=new Date('2022-12-19T00:00:00.000Z').valueOf();
sats=[{"INCLINATION":"53.0550","APOAPSIS":"548.636","MEAN_MOTION":"15.06395123","REF_FRAME":"TEME","TLE_LINE1":"1 45366U 20019G   22352.43252485  .00000217  00000-0  33453-4 0  9995","NORAD_CAT_ID":"45366","LAUNCH_DATE":"2020-03-18","ECCENTRICITY":"0.00020330","MEAN_ELEMENT_THEORY":"SGP4","REV_AT_EPOCH":"15229","BSTAR":"0.00003345300000","EPHEMERIS_TYPE":"0","SITE":"AFETR","RCS_SIZE":"LARGE","FILE":"3708942","SEMIMAJOR_AXIS":"6925.364","MEAN_MOTION_DOT":"0.00000217","PERIOD":"95.592","OBJECT_TYPE":"PAYLOAD","EPOCH":"2022-12-18T10:22:50.147040","MEAN_ANOMALY":"314.2004","PERIAPSIS":"545.821","ELEMENT_SET_NO":"999","CENTER_NAME":"EARTH","COUNTRY_CODE":"US","TLE_LINE2":"2 45366  53.0550  51.5342 0002033  45.9152 314.2004 15.06395123152296","RA_OF_ASC_NODE":"51.5342","OBJECT_ID":"2020-019G","TIME_SYSTEM":"UTC","ARG_OF_PERICENTER":"45.9152","CLASSIFICATION_TYPE":"U","MEAN_MOTION_DDOT":"0.0000000000000","DECAY_DATE":null,"OBJECT_NAME":"STARLINK-1262","GP_ID":"220824828"},{"EPHEMERIS_TYPE":"0","BSTAR":"0.00107180000000","RCS_SIZE":"LARGE","FILE":"3709451","SEMIMAJOR_AXIS":"6925.296","MEAN_MOTION_DOT":"0.00015726","SITE":"AFETR","PERIOD":"95.591","MEAN_ANOMALY":"306.1810","EPOCH":"2022-12-18T18:52:22.996992","OBJECT_TYPE":"PAYLOAD","APOAPSIS":"548.517","MEAN_MOTION":"15.06417063","INCLINATION":"53.0560","TLE_LINE1":"1 45367U 20019H   22352.78637728  .00015726  00000-0  10718-2 0  9999","REF_FRAME":"TEME","MEAN_ELEMENT_THEORY":"SGP4","NORAD_CAT_ID":"45367","ECCENTRICITY":"0.00019570","LAUNCH_DATE":"2020-03-18","REV_AT_EPOCH":"15234","DECAY_DATE":null,"OBJECT_NAME":"STARLINK-1273","GP_ID":"220843382","COUNTRY_CODE":"US","TLE_LINE2":"2 45367  53.0560  49.9452 0001957  53.9360 306.1810 15.06417063152344","ELEMENT_SET_NO":"999","PERIAPSIS":"545.806","CENTER_NAME":"EARTH","RA_OF_ASC_NODE":"49.9452","TIME_SYSTEM":"UTC","OBJECT_ID":"2020-019H","MEAN_MOTION_DDOT":"0.0000000000000","CLASSIFICATION_TYPE":"U","ARG_OF_PERICENTER":"53.9360"},{"APOAPSIS":"548.904","MEAN_MOTION":"15.06390449","INCLINATION":"53.0560","TLE_LINE1":"1 45368U 20019J   22352.55785223 -.00000259  00000-0  15460-5 0  9997","REF_FRAME":"TEME","MEAN_ELEMENT_THEORY":"SGP4","NORAD_CAT_ID":"45368","ECCENTRICITY":"0.00023990","LAUNCH_DATE":"2020-03-18","REV_AT_EPOCH":"15231","EPHEMERIS_TYPE":"0","BSTAR":"0.00000154600000","FILE":"3709623","RCS_SIZE":"LARGE","SEMIMAJOR_AXIS":"6925.378","MEAN_MOTION_DOT":"-0.00000259","SITE":"AFETR","PERIOD":"95.593","MEAN_ANOMALY":"324.1376","OBJECT_TYPE":"PAYLOAD","EPOCH":"2022-12-18T13:23:18.432672","COUNTRY_CODE":"US","TLE_LINE2":"2 45368  53.0560  50.9821 0002399  35.9774 324.1376 15.06390449152319","ELEMENT_SET_NO":"999","PERIAPSIS":"545.581","CENTER_NAME":"EARTH","RA_OF_ASC_NODE":"50.9821","TIME_SYSTEM":"UTC","OBJECT_ID":"2020-019J","MEAN_MOTION_DDOT":"0.0000000000000","CLASSIFICATION_TYPE":"U","ARG_OF_PERICENTER":"35.9774","DECAY_DATE":null,"OBJECT_NAME":"STARLINK-1276","GP_ID":"220865883"},{"MEAN_MOTION_DDOT":"0.0000000000000","CLASSIFICATION_TYPE":"U","ARG_OF_PERICENTER":"65.1264","TIME_SYSTEM":"UTC","OBJECT_ID":"2020-019K","RA_OF_ASC_NODE":"49.4872","COUNTRY_CODE":"US","TLE_LINE2":"2 45369  53.0558  49.4872 0001692  65.1264 294.9901 15.06399422152363","ELEMENT_SET_NO":"999","PERIAPSIS":"546.044","CENTER_NAME":"EARTH","OBJECT_NAME":"STARLINK-1277","GP_ID":"220865634","DECAY_DATE":null,"REV_AT_EPOCH":"15236","MEAN_ELEMENT_THEORY":"SGP4","NORAD_CAT_ID":"45369","LAUNCH_DATE":"2020-03-18","ECCENTRICITY":"0.00016920","TLE_LINE1":"1 45369U 20019K   22352.88864791  .00003172  00000-0  23176-3 0  9999","REF_FRAME":"TEME","APOAPSIS":"548.387","MEAN_MOTION":"15.06399422","INCLINATION":"53.0558","MEAN_ANOMALY":"294.9901","OBJECT_TYPE":"PAYLOAD","EPOCH":"2022-12-18T21:19:39.179424","PERIOD":"95.592","FILE":"3709623","SEMIMAJOR_AXIS":"6925.350","RCS_SIZE":"LARGE","MEAN_MOTION_DOT":"0.00003172","SITE":"AFETR","BSTAR":"0.00023176000000","EPHEMERIS_TYPE":"0"},{"BSTAR":"0.00000152240000","EPHEMERIS_TYPE":"0","SITE":"AFETR","FILE":"3709623","SEMIMAJOR_AXIS":"6925.365","RCS_SIZE":"LARGE","MEAN_MOTION_DOT":"-0.00000259","PERIOD":"95.592","EPOCH":"2022-12-18T14:42:54.976320","OBJECT_TYPE":"PAYLOAD","MEAN_ANOMALY":"318.4073","INCLINATION":"53.0555","APOAPSIS":"548.582","MEAN_MOTION":"15.06394724","REF_FRAME":"TEME","TLE_LINE1":"1 45370U 20019L   22352.61313630 -.00000259  00000-0  15224-5 0  9994","NORAD_CAT_ID":"45370","LAUNCH_DATE":"2020-03-18","ECCENTRICITY":"0.00019530","MEAN_ELEMENT_THEORY":"SGP4","REV_AT_EPOCH":"15232","DECAY_DATE":null,"GP_ID":"220866884","OBJECT_NAME":"STARLINK-1281","ELEMENT_SET_NO":"999","PERIAPSIS":"545.877","CENTER_NAME":"EARTH","COUNTRY_CODE":"US","TLE_LINE2":"2 45370  53.0555  50.7356 0001953  41.7065 318.4073 15.06394724152321","RA_OF_ASC_NODE":"50.7356","OBJECT_ID":"2020-019L","TIME_SYSTEM":"UTC","ARG_OF_PERICENTER":"41.7065","MEAN_MOTION_DDOT":"0.0000000000000","CLASSIFICATION_TYPE":"U"},{"INCLINATION":"53.0547","MEAN_MOTION":"15.06394687","APOAPSIS":"548.604","REF_FRAME":"TEME","TLE_LINE1":"1 45371U 20019M   22352.64168122  .00002169  00000-0  16449-3 0  9991","ECCENTRICITY":"0.00019840","LAUNCH_DATE":"2020-03-18","NORAD_CAT_ID":"45371","MEAN_ELEMENT_THEORY":"SGP4","REV_AT_EPOCH":"15232","EPHEMERIS_TYPE":"0","BSTAR":"0.00016449000000","SITE":"AFETR","MEAN_MOTION_DOT":"0.00002169","FILE":"3709623","RCS_SIZE":"LARGE","SEMIMAJOR_AXIS":"6925.365","PERIOD":"95.592","EPOCH":"2022-12-18T15:24:01.257408","OBJECT_TYPE":"PAYLOAD","MEAN_ANOMALY":"316.0902","CENTER_NAME":"EARTH","PERIAPSIS":"545.856","ELEMENT_SET_NO":"999","TLE_LINE2":"2 45371  53.0547  50.5897 0001984  44.0245 316.0902 15.06394687152324","COUNTRY_CODE":"US","RA_OF_ASC_NODE":"50.5897","OBJECT_ID":"2020-019M","TIME_SYSTEM":"UTC","ARG_OF_PERICENTER":"44.0245","MEAN_MOTION_DDOT":"0.0000000000000","CLASSIFICATION_TYPE":"U","DECAY_DATE":null,"GP_ID":"220866632","OBJECT_NAME":"STARLINK-1287"},{"MEAN_MOTION":"15.06398969","APOAPSIS":"548.541","INCLINATION":"53.0558","TLE_LINE1":"1 45372U 20019N   22352.85640387  .00000411  00000-0  46505-4 0  9998","REF_FRAME":"TEME","MEAN_ELEMENT_THEORY":"SGP4","LAUNCH_DATE":"2020-03-18","ECCENTRICITY":"0.00019120","NORAD_CAT_ID":"45372","REV_AT_EPOCH":"15235","BSTAR":"0.00004650500000","EPHEMERIS_TYPE":"0","MEAN_MOTION_DOT":"0.00000411","FILE":"3709623","SEMIMAJOR_AXIS":"6925.352","RCS_SIZE":"LARGE","SITE":"AFETR","PERIOD":"95.592","MEAN_ANOMALY":"306.7835","OBJECT_TYPE":"PAYLOAD","EPOCH":"2022-12-18T20:33:13.294368","TLE_LINE2":"2 45372  53.0558  49.6198 0001912  53.3330 306.7835 15.06398969152350","COUNTRY_CODE":"US","CENTER_NAME":"EARTH","PERIAPSIS":"545.893","ELEMENT_SET_NO":"999","RA_OF_ASC_NODE":"49.6198","TIME_SYSTEM":"UTC","OBJECT_ID":"2020-019N","MEAN_MOTION_DDOT":"0.0000000000000","CLASSIFICATION_TYPE":"U","ARG_OF_PERICENTER":"53.3330","DECAY_DATE":null,"GP_ID":"220865384","OBJECT_NAME":"STARLINK-1288"},{"DECAY_DATE":null,"OBJECT_NAME":"STARLINK-1295","GP_ID":"220866134","TLE_LINE2":"2 45373  53.0556  50.6041 0001938  48.6982 311.4174 15.06398726152323","COUNTRY_CODE":"US","CENTER_NAME":"EARTH","PERIAPSIS":"545.875","ELEMENT_SET_NO":"999","RA_OF_ASC_NODE":"50.6041","TIME_SYSTEM":"UTC","OBJECT_ID":"2020-019P","MEAN_MOTION_DDOT":"0.0000000000000","CLASSIFICATION_TYPE":"U","ARG_OF_PERICENTER":"48.6982","EPHEMERIS_TYPE":"0","BSTAR":"-0.00002279000000","MEAN_MOTION_DOT":"-0.00000621","FILE":"3709623","RCS_SIZE":"LARGE","SEMIMAJOR_AXIS":"6925.352","SITE":"AFETR","PERIOD":"95.592","MEAN_ANOMALY":"311.4174","OBJECT_TYPE":"PAYLOAD","EPOCH":"2022-12-18T15:20:04.059168","MEAN_MOTION":"15.06398726","APOAPSIS":"548.560","INCLINATION":"53.0556","TLE_LINE1":"1 45373U 20019P   22352.63893587 -.00000621  00000-0 -22790-4 0  9992","REF_FRAME":"TEME","MEAN_ELEMENT_THEORY":"SGP4","ECCENTRICITY":"0.00019380","LAUNCH_DATE":"2020-03-18","NORAD_CAT_ID":"45373","REV_AT_EPOCH":"15232"},{"TIME_SYSTEM":"UTC","OBJECT_ID":"2020-019Q","MEAN_MOTION_DDOT":"0.0000000000000","CLASSIFICATION_TYPE":"U","ARG_OF_PERICENTER":"56.0247","TLE_LINE2":"2 45374  53.0562  49.4362 0001613  56.0247 304.0895 15.06385091152363","COUNTRY_CODE":"US","CENTER_NAME":"EARTH","ELEMENT_SET_NO":"999","PERIAPSIS":"546.142","RA_OF_ASC_NODE":"49.4362","DECAY_DATE":null,"GP_ID":"220866385","OBJECT_NAME":"STARLINK-1300","MEAN_ELEMENT_THEORY":"SGP4","LAUNCH_DATE":"2020-03-18","ECCENTRICITY":"0.00016130","NORAD_CAT_ID":"45374","REV_AT_EPOCH":"15236","MEAN_MOTION":"15.06385091","APOAPSIS":"548.376","INCLINATION":"53.0562","TLE_LINE1":"1 45374U 20019Q   22352.90064080 -.00000099  00000-0  12282-4 0  9994","REF_FRAME":"TEME","PERIOD":"95.593","MEAN_ANOMALY":"304.0895","EPOCH":"2022-12-18T21:36:55.365120","OBJECT_TYPE":"PAYLOAD","BSTAR":"0.00001228200000","EPHEMERIS_TYPE":"0","MEAN_MOTION_DOT":"-0.00000099","FILE":"3709623","SEMIMAJOR_AXIS":"6925.394","RCS_SIZE":"LARGE","SITE":"AFETR"},{"EPHEMERIS_TYPE":"0","BSTAR":"0.00173350000000","MEAN_MOTION_DOT":"0.00025674","FILE":"3708942","RCS_SIZE":"LARGE","SEMIMAJOR_AXIS":"6925.170","SITE":"AFETR","PERIOD":"95.588","MEAN_ANOMALY":"311.9941","EPOCH":"2022-12-18T10:49:21.619488","OBJECT_TYPE":"PAYLOAD","MEAN_MOTION":"15.06458117","APOAPSIS":"548.227","INCLINATION":"53.0554","TLE_LINE1":"1 45375U 20019R   22352.45094467  .00025674  00000-0  17335-2 0  9994","REF_FRAME":"TEME","MEAN_ELEMENT_THEORY":"SGP4","LAUNCH_DATE":"2020-03-18","ECCENTRICITY":"0.00017210","NORAD_CAT_ID":"45375","REV_AT_EPOCH":"15229","DECAY_DATE":null,"GP_ID":"220824578","OBJECT_NAME":"STARLINK-1302","TLE_LINE2":"2 45375  53.0554  51.4449 0001721  48.1194 311.9941 15.06458117152298","COUNTRY_CODE":"US","CENTER_NAME":"EARTH","ELEMENT_SET_NO":"999","PERIAPSIS":"545.844","RA_OF_ASC_NODE":"51.4449","TIME_SYSTEM":"UTC","OBJECT_ID":"2020-019R","MEAN_MOTION_DDOT":"0.0000000000000","CLASSIFICATION_TYPE":"U","ARG_OF_PERICENTER":"48.1194"}];
